STARLINK-36526          
1 67508U 26012R   26045.50002314 -.01782009  00000+0 -40362-1 0  9993
2 67508  43.0005  85.2548 0001652 282.4506 179.7758 15.45346806  5341
STARLINK-36541          
1 67509U 26012S   26045.42889573  .00071950  00000+0  12184-2 0  9990
2 67509  42.9986  86.7186 0000544 353.0224   7.0629 15.50639519  4197
STARLINK-36549          
1 67510U 26012T   26045.50002314 -.01850287  00000+0 -45931-1 0  9997
2 67510  42.9996  85.1645 0001428 294.7632 200.9105 15.42791835  5284
STARLINK-36540          
1 67511U 26012U   26045.49165125  .00095249  00000+0  16087-2 0  9993
2 67511  43.0023  86.3251 0003377 283.9420  76.1065 15.50592337  4208
STARLINK-36538          
1 67512U 26012V   26045.50002314 -.01814551  00000+0 -55320-1 0  9996
2 67512  43.0002  85.6850 0001034 275.1953  11.5542 15.36550590  5343
STARLINK-36531          
1 67513U 26012W   26045.50002314 -.01823957  00000+0 -53084-1 0  9992
2 67513  42.9999  85.5757 0001299 268.8526  62.5078 15.37985161  5280
STARLINK-36530          
1 67514U 26012X   26045.50002314 -.01821670  00000+0 -51075-1 0  9991
2 67514  42.9994  85.5957 0001163 266.7484  56.3397 15.39112960  5284
STARLINK-36543          
1 67515U 26012Y   26045.50002314 -.01819169  00000+0 -49031-1 0  9991
2 67515  42.9995  85.6230 0001171 268.1175  44.2921 15.40295624  5283
STARLINK-36537          
1 67516U 26012Z   26045.50002314 -.01837371  00000+0 -49412-1 0  9990
2 67516  43.0006  85.4510 0001489 273.4968 107.7745 15.40392204  5280
STARLINK-36544          
1 67517U 26012AA  26045.50002314 -.01838646  00000+0 -52533-1 0  9995
2 67517  43.0006  85.4501 0001330 270.9937 110.4671 15.38572284  5345
STARLINK-36412          
1 67518U 26012AB  26045.50002314 -.01829922  00000+0 -44361-1 0  9993
2 67518  43.0010  85.3450 0001529 281.6709 142.5715 15.43452254  5287
STARLINK-36415          
1 67519U 26012AC  26045.50002314 -.01831390  00000+0 -43098-1 0  9992
2 67519  43.0004  85.3016 0001502 287.2315 153.8293 15.44322578  5490
